     3.00           N                   E                   RINEX VERSION / TYPE
BRD_USR             ESA                 20190106 212059  UTCPGM / RUN BY / DATE
 GAL   4.9750E+01  3.9062E-03 -3.2654E-03  0.0000E+00       IONOSPHERIC CORR
GAUT  0.0000000000E+00 0.000000000E+00      0 2035 GSTB   0 TIME SYSTEM CORR
GPGA -2.1245796233E-09 4.440892099E-15  86400 2035 GSTB   0 TIME SYSTEM CORR
                                                            END OF HEADER
E24 2019 01 06 19 00 00 6.299617292825E-03-1.966782292584E-11 0.000000000000E+00
     1.140000000000E+02 1.232500000000E+02 2.437601535888E-09-2.733455173574E+00
     5.815178155899E-06 4.639464896172E-04 1.216307282448E-05 5.440625337601E+03
     6.840000000000E+04 7.450580596924E-09-2.943126991498E+00-1.862645149231E-08
     9.879114506373E-01 8.981250000000E+01 4.455476278299E-01-5.105569810333E-09
    -2.703684047864E-10 5.210000000000E+02 2.035000000000E+03 0.000000000000E+00
     3.120000000000E+00 0.000000000000E+00 4.260800778866E-08 4.773028194904E-08
     6.950500000000E+04 0.000000000000E+00 0.000000000000E+00 0.000000000000E+00
E01 2019 01 06 18 50 00-5.151584045961E-04-8.157030606526E-12 0.000000000000E+00
     1.130000000000E+02 1.501250000000E+02 2.364741358112E-09 6.617760529432E-02
     6.889924407005E-06 1.149807358161E-04 1.285411417484E-05 5.440625009537E+03
     6.780000000000E+04-1.862645149231E-09-2.946595008504E+00 1.490116119385E-08
     9.903449300129E-01 7.775000000000E+01-8.529384315321E-01-5.045210153254E-09
    -2.928693420408E-10 5.210000000000E+02 2.035000000000E+03 0.000000000000E+00
     3.120000000000E+00 0.000000000000E+00-4.656612873077E-09-5.355104804039E-09
     6.959500000000E+04 0.000000000000E+00 0.000000000000E+00 0.000000000000E+00
E01 2019 01 06 18 50 00-5.151581717655E-04-8.157030606526E-12 0.000000000000E+00
     1.130000000000E+02 1.501250000000E+02 2.364741358112E-09 6.617760529432E-02
     6.889924407005E-06 1.149807358161E-04 1.285411417484E-05 5.440625009537E+03
     6.780000000000E+04-1.862645149231E-09-2.946595008504E+00 1.490116119385E-08
     9.903449300129E-01 7.775000000000E+01-8.529384315321E-01-5.045210153254E-09
    -2.928693420408E-10 2.580000000000E+02 2.035000000000E+03 0.000000000000E+00
     3.120000000000E+00 0.000000000000E+00-4.656612873077E-09 0.000000000000E+00
     6.960000000000E+04 0.000000000000E+00 0.000000000000E+00 0.000000000000E+00
E18 2019 01 06 19 00 00 5.626006342936E-03-2.845013113983E-11 0.000000000000E+00
     1.140000000000E+02 9.968750000000E+00 6.719922768899E-09-2.093846207728E-01
     6.929039955139E-07 1.664226995781E-01 4.876405000687E-06 5.289322511673E+03
     6.840000000000E+04-2.393499016762E-06-1.444464614103E+00 1.583248376846E-07
     8.817432782725E-01 2.594062500000E+02 1.438160676273E+00-1.181227774307E-08
    -5.735953211189E-10 2.580000000000E+02 2.035000000000E+03 0.000000000000E+00
     3.120000000000E+00 5.600000000000E+01 1.420266926289E-08 0.000000000000E+00
     6.965000000000E+04 0.000000000000E+00 0.000000000000E+00 0.000000000000E+00
E18 2019 01 06 19 00 00 5.626008321997E-03-2.845013113983E-11 0.000000000000E+00
     1.140000000000E+02 9.968750000000E+00 6.719922768899E-09-2.093846207728E-01
     6.929039955139E-07 1.664226995781E-01 4.876405000687E-06 5.289322511673E+03
     6.840000000000E+04-2.393499016762E-06-1.444464614103E+00 1.583248376846E-07
     8.817432782725E-01 2.594062500000E+02 1.438160676273E+00-1.181227774307E-08
    -5.735953211189E-10 5.210000000000E+02 2.035000000000E+03 0.000000000000E+00
     3.120000000000E+00 4.550000000000E+02 1.420266926289E-08 1.583248376846E-08
     6.965500000000E+04 0.000000000000E+00 0.000000000000E+00 0.000000000000E+00
E03 2019 01 06 19 10 00-1.192361814901E-04-4.263256414561E-12 0.000000000000E+00
     1.150000000000E+02 3.912500000000E+01 3.672652980738E-09-2.326576325368E+00
     1.665204763412E-06 2.724520163611E-04 5.602836608887E-06 5.440608400345E+03
     6.900000000000E+04 9.313225746155E-09 1.244191216827E+00 2.235174179077E-08
     9.522156921314E-01 2.141250000000E+02 6.356542111265E-01-5.752739624696E-09
     5.535944880039E-10 5.210000000000E+02 2.035000000000E+03 0.000000000000E+00
     3.120000000000E+00 0.000000000000E+00-1.862645149231E-09-2.095475792885E-09
     6.968500000000E+04 0.000000000000E+00 0.000000000000E+00 0.000000000000E+00
E04 2019 01 06 19 10 00-1.946080010384E-04-7.815970093361E-12 0.000000000000E+00
     1.150000000000E+02 2.656250000000E+01 3.666224141523E-09-1.335710246882E+00
     1.156702637672E-06 8.134450763464E-05 6.025657057762E-06 5.440606082916E+03
     6.900000000000E+04 2.235174179077E-08 1.244241754795E+00-2.235174179077E-08
     9.522596630601E-01 2.106562500000E+02 2.005466392136E+00-5.654878405527E-09
     5.718095324479E-10 5.210000000000E+02 2.035000000000E+03 0.000000000000E+00
     3.120000000000E+00 0.000000000000E+00-7.916241884232E-09-8.847564458847E-09
     6.968500000000E+04 0.000000000000E+00 0.000000000000E+00 0.000000000000E+00
E07 2019 01 06 19 10 00-1.076783519238E-04-7.091216502886E-12 0.000000000000E+00
     1.150000000000E+02 2.996875000000E+01 3.714797593373E-09 2.954243346105E+00
     1.452863216400E-06 1.431141281500E-04 5.569308996201E-06 5.440605991364E+03
     6.900000000000E+04-2.048909664154E-08 1.244193016216E+00 3.166496753693E-08
     9.522598781091E-01 2.178750000000E+02 6.759820261647E-02-5.704523330580E-09
     5.428797559780E-10 5.210000000000E+02 2.035000000000E+03 0.000000000000E+00
     3.120000000000E+00 0.000000000000E+00 4.656612873077E-10 2.328306436539E-10
     6.968500000000E+04 0.000000000000E+00 0.000000000000E+00 0.000000000000E+00
E08 2019 01 06 19 10 00 6.428594933823E-03-7.446487870766E-12 0.000000000000E+00
     1.150000000000E+02 3.671875000000E+01 3.617650689672E-09-2.967109277588E+00
     1.607462763786E-06 2.262573689222E-04 5.587935447693E-06 5.440607130051E+03
     6.900000000000E+04-9.313225746155E-09 1.235554025602E+00-1.303851604462E-08
     9.582025453936E-01 2.215937500000E+02 4.924100141221E-01-5.683093866528E-09
     5.471656487884E-10 5.210000000000E+02 2.035000000000E+03 0.000000000000E+00
     3.120000000000E+00 0.000000000000E+00-8.381903171539E-09-9.778887033463E-09
     6.968500000000E+04 0.000000000000E+00 0.000000000000E+00 0.000000000000E+00
E09 2019 01 06 19 10 00 6.566080788616E-03-1.126920778916E-11 0.000000000000E+00
     1.150000000000E+02 2.893750000000E+01 3.544433354162E-09-2.451520842083E-01
     1.417472958565E-06 2.461402909830E-04 5.980953574181E-06 5.440609090805E+03
     6.900000000000E+04 1.862645149231E-08 1.235550371232E+00-3.911554813385E-08
     9.582330633276E-01 2.132187500000E+02 1.253873873680E-01-5.604162007271E-09
     5.871673150184E-10 5.210000000000E+02 2.035000000000E+03 0.000000000000E+00
     3.120000000000E+00 0.000000000000E+00-3.259629011154E-09-3.958120942116E-09
     6.968500000000E+04 0.000000000000E+00 0.000000000000E+00 0.000000000000E+00
E12 2019 01 06 19 10 00 5.884234386031E-03 8.432721188001E-11 0.000000000000E+00
     1.150000000000E+02-1.573125000000E+02 2.885834492304E-09-2.603482453814E+00
    -7.292255759239E-06 3.725639544427E-04 5.960464477539E-07 5.440606725693E+03
     6.900000000000E+04 4.656612873077E-08-8.609983333394E-01 5.774199962616E-08
     9.819663885559E-01 3.391875000000E+02-9.004473705616E-01-5.818099490054E-09
    -3.014411276615E-10 5.210000000000E+02 2.035000000000E+03 0.000000000000E+00
     3.120000000000E+00 0.000000000000E+00-1.559965312481E-08-1.583248376846E-08
     6.968500000000E+04 0.000000000000E+00 0.000000000000E+00 0.000000000000E+00
E13 2019 01 06 19 10 00 3.814085503109E-04 4.547473508865E-13 0.000000000000E+00
     1.150000000000E+02-1.699062500000E+02 2.820117469212E-09 4.479143820490E-01
    -7.893890142441E-06 3.341819392517E-04 1.898035407066E-06 5.440601211548E+03
     6.900000000000E+04-2.235174179077E-08-8.662822369095E-01-1.862645149231E-09
     9.851930928354E-01 3.124375000000E+02-1.607520379196E+00-5.729524371974E-09
    -3.646580466142E-10 5.210000000000E+02 2.035000000000E+03 0.000000000000E+00
     3.120000000000E+00 4.550000000000E+02-4.656612873077E-09-5.587935447693E-09
     6.968500000000E+04 0.000000000000E+00 0.000000000000E+00 0.000000000000E+00
E15 2019 01 06 19 10 00 9.236790938303E-04-9.947598300641E-13 0.000000000000E+00
     1.150000000000E+02-1.619375000000E+02 2.848690087948E-09 1.311399845822E+00
    -7.556751370430E-06 3.828587941825E-04 2.017244696617E-06 5.440597517014E+03
     6.900000000000E+04-1.303851604462E-08-8.662943908329E-01-1.676380634308E-08
     9.851508554646E-01 3.074375000000E+02-1.688790648452E+00-5.703451857377E-09
    -3.057270204718E-10 5.210000000000E+02 2.035000000000E+03 0.000000000000E+00
     3.120000000000E+00 4.550000000000E+02 9.313225746155E-10 9.313225746155E-10
     6.968500000000E+04 0.000000000000E+00 0.000000000000E+00 0.000000000000E+00
E18 2019 01 06 19 10 00 5.625991267152E-03-2.845013113983E-11 0.000000000000E+00
     1.150000000000E+02 9.093750000000E+00 6.729566027723E-09-1.284304690960E-01
     5.792826414108E-07 1.664228733862E-01 5.103647708893E-06 5.289322988510E+03
     6.900000000000E+04-2.525746822357E-06-1.444471601000E+00-2.235174179077E-08
     8.817429652080E-01 2.584687500000E+02 1.438161103445E+00-1.174263198490E-08
    -6.718136980228E-10 5.210000000000E+02 2.035000000000E+03 0.000000000000E+00
     3.120000000000E+00 4.550000000000E+02 1.420266926289E-08 1.583248376846E-08
     6.968500000000E+04 0.000000000000E+00 0.000000000000E+00 0.000000000000E+00
